{"format":"tle-catalog-v1","generatedAt":"2026-07-01T14:19:31.438Z","count":19018,"entries":[{"name":"FENGYUN 1C DEB","line1":"1 30472U 99025AGK 26181.76385627  .00009842  00000+0  21412-2 0  9997","line2":"2 30472  98.6573 295.1694 0037043 184.6713 335.0429 14.57772617  9461"},{"name":"FENGYUN 1C DEB","line1":"1 30474U 99025AGM 26181.24978583  .00005226  00000+0  16553-2 0  9993","line2":"2 30474  98.9232 273.1634 0027902 135.3891 285.7450 14.40305354  2607"},{"name":"FENGYUN 1C DEB","line1":"1 30475U 99025AGN 26182.09983772  .00001572  00000+0  80690-3 0  9998","line2":"2 30475  98.7725 225.7396 0044833  81.4820 335.9691 14.16268735997877"},{"name":"FENGYUN 1C DEB","line1":"1 30476U 99025AGP 26182.07231322  .00003097  00000+0  14057-2 0  9991","line2":"2 30476  99.1082 230.7661 0047118  89.9127 338.7448 14.22030004996910"},{"name":"FENGYUN 1C DEB","line1":"1 30477U 99025AGQ 26181.70674358  .00001195  00000+0  17284-2 0  9993","line2":"2 30477  99.4192 251.2034 0435319 156.8780 356.4194 13.24360488933651"},{"name":"FENGYUN 1C DEB","line1":"1 30480U 99025AGS 26182.01172595  .00000435  00000+0  14875-3 0  9998","line2":"2 30480  98.2152 192.0076 0163539 267.2957 117.5979 14.33930271 15383"},{"name":"FENGYUN 1C DEB","line1":"1 30481U 99025AGT 26182.04158294  .00002588  00000+0  62831-3 0  9998","line2":"2 30481  98.3233 198.9490 0222330  17.6828  38.9275 14.39823817 13576"},{"name":"FENGYUN 1C DEB","line1":"1 30489U 99025AHB 26181.99598894  .00000583  00000+0  28671-3 0  9990","line2":"2 30489  98.4598 192.0347 0140672  48.1114 341.0919 14.16046144  2206"},{"name":"FENGYUN 1C DEB","line1":"1 30492U 99025AHE 26182.08163557  .00020185  00000+0  41459-2 0  9997","line2":"2 30492 102.3262 298.2921 0091927 248.5252 110.6110 14.58047686998088"},{"name":"FENGYUN 1C DEB","line1":"1 30493U 99025AHF 26181.98858911  .00002200  00000+0  14769-2 0  9993","line2":"2 30493  98.5778   2.9653 0181794  22.4466 129.8962 13.93988513978847"},{"name":"FENGYUN 1C DEB","line1":"1 30494U 99025AHG 26180.06978524  .00001190  00000+0  10418-2 0  9999","line2":"2 30494  99.2622 216.4508 0187085  57.2098 304.6924 13.79952034972210"},{"name":"FENGYUN 1C DEB","line1":"1 30495U 99025AHH 26182.08191696  .00002577  00000+0  41807-2 0  9997","line2":"2 30495 102.2652 300.1033 0593558 215.9857 139.9869 12.95163740912660"},{"name":"FENGYUN 1C DEB","line1":"1 30496U 99025AHJ 26180.78868154  .00003993  00000+0  30024-3 0  9996","line2":"2 30496  98.7868 115.7770 0121564 170.2435 190.1187 14.97529068 41204"},{"name":"FENGYUN 1C DEB","line1":"1 30498U 99025AHL 26181.63519705  .00002668  00000+0  15537-2 0  9997","line2":"2 30498  99.2286 241.8178 0096607 321.9045 192.1292 14.07154915985796"},{"name":"FENGYUN 1C DEB","line1":"1 30500U 99025AHN 26181.77644359  .00004243  00000+0  17176-2 0  9992","line2":"2 30500  99.0724 285.3641 0060970 256.1994 256.0363 14.27324571995338"},{"name":"FENGYUN 1C DEB","line1":"1 30501U 99025AHP 26180.96116422  .00002872  00000+0  11956-2 0  9994","line2":"2 30501  99.0891 184.1744 0040654 353.0730  36.7432 14.26724758997596"},{"name":"FENGYUN 1C DEB","line1":"1 30503U 99025AHR 26181.40386868  .00000360  00000+0  20513-3 0  9999","line2":"2 30503  99.1879  36.4435 0010081  63.8566  60.3025 14.16330912  1732"},{"name":"FENGYUN 1C DEB","line1":"1 30504U 99025AHS 26181.83117214  .00001248  00000+0  56175-3 0  9993","line2":"2 30504  99.0002 236.9321 0110870   6.4323 353.8247 14.20951678  2349"},{"name":"FENGYUN 1C DEB","line1":"1 30505U 99025AHT 26181.93387067  .00002292  00000+0  10109-2 0  9996","line2":"2 30505  98.9182 269.0742 0062599  29.7151  24.1451 14.23302151997709"},{"name":"FENGYUN 1C DEB","line1":"1 30506U 99025AHU 26181.99684711  .00000284  00000+0  18427-3 0  9990","line2":"2 30506  98.7561 186.3892 0071160 140.7143 278.5849 14.08858644996414"},{"name":"FENGYUN 1C DEB","line1":"1 30507U 99025AHV 26182.13899655  .00001423  00000+0  71806-3 0  9999","line2":"2 30507  98.9979 253.0008 0125157 330.1969  88.7006 14.13939194993293"},{"name":"FENGYUN 1C DEB","line1":"1 30509U 99025AHX 26181.57273087  .00002304  00000+0  12999-2 0  9999","line2":"2 30509  98.4584  46.1292 0097709 215.3971 174.2256 14.08809077985352"},{"name":"FENGYUN 1C DEB","line1":"1 30510U 99025AHY 26182.05221103  .00002017  00000+0  10606-2 0  9991","line2":"2 30510  99.2336 205.6001 0076017 326.0554  89.1677 14.13825957994042"},{"name":"FENGYUN 1C DEB","line1":"1 30514U 99025AJC 26182.03399729  .00001219  00000+0  37689-3 0  9997","line2":"2 30514  98.3951 205.2985 0170973 216.9847 141.9454 14.35052521 10956"},{"name":"FENGYUN 1C DEB","line1":"1 30515U 99025AJD 26181.89155263  .00001021  00000+0  57766-3 0  9993","line2":"2 30515  98.4884  38.8919 0492546 263.9121 229.1267 13.64464257960599"},{"name":"FENGYUN 1C DEB","line1":"1 30516U 99025AJE 26182.02116980  .00007280  00000+0  21293-2 0  9991","line2":"2 30516  98.8628 298.8457 0008891  76.4444 345.8177 14.44261888  6036"},{"name":"FENGYUN 1C DEB","line1":"1 30520U 99025AJJ 26181.78610853  .00028800  00000+0  11542-2 0  9993","line2":"2 30520  98.7133  30.2047 0058107 145.4223 215.0811 15.23413419 40781"},{"name":"FENGYUN 1C DEB","line1":"1 30521U 99025AJK 26182.15306406  .00001624  00000+0  31353-3 0  9990","line2":"2 30521  99.0142 339.1522 0133062 354.3599   5.6092 14.59583011 25024"},{"name":"FENGYUN 1C DEB","line1":"1 30523U 99025AJM 26182.18681449  .00000333  00000+0  11309-3 0  9993","line2":"2 30523  98.4869 159.9647 0240899 238.6728 251.9674 14.28272269  9611"},{"name":"FENGYUN 1C DEB","line1":"1 30524U 99025AJN 26181.46249983  .00004185  00000+0  26653-2 0  9993","line2":"2 30524  99.3210   0.1433 0202512  69.4771 292.7995 13.94640316966671"},{"name":"FENGYUN 1C DEB","line1":"1 30525U 99025AJP 26181.57235920  .00000864  00000+0  92285-3 0  9997","line2":"2 30525  98.5918  47.4082 0291665 146.6877 215.3002 13.59159199958311"},{"name":"FENGYUN 1C DEB","line1":"1 30526U 99025AJQ 26181.69710342  .00000484  00000+0  61115-3 0  9993","line2":"2 30526  99.5371 260.8384 0308275 124.4191 238.6495 13.50204497953560"},{"name":"FENGYUN 1C DEB","line1":"1 30527U 99025AJR 26181.92930984  .00000921  00000+0  12517-2 0  9993","line2":"2 30527 100.0451 226.2036 0413216 110.2040  13.6750 13.31478793940209"},{"name":"FENGYUN 1C DEB","line1":"1 30528U 99025AJS 26181.58294297  .00000483  00000+0  24970-3 0  9996","line2":"2 30528  98.2134  40.3339 0144463   9.1132  18.0110 14.13770214999612"},{"name":"FENGYUN 1C DEB","line1":"1 30529U 99025AJT 26181.41040896  .00001392  00000+0  12916-2 0  9999","line2":"2 30529  98.4849  85.5462 0233205  47.3505 314.7045 13.72168409967469"},{"name":"FENGYUN 1C DEB","line1":"1 30530U 99025AJU 26182.07152160  .00000560  00000+0  19288-3 0  9998","line2":"2 30530  98.3702 220.2935 0097621 257.9514 157.4097 14.37078306 16631"},{"name":"FENGYUN 1C DEB","line1":"1 30531U 99025AJV 26182.02473885  .00029107  00000+0  48578-2 0  9995","line2":"2 30531 102.3080 111.9652 0027065  21.2892 338.9418 14.69647986  6223"},{"name":"FENGYUN 1C DEB","line1":"1 30533U 99025AJX 26181.99438447  .00010316  00000+0  21365-2 0  9994","line2":"2 30533  98.8423 327.7617 0073265 256.9626 225.1692 14.58766054  7259"},{"name":"FENGYUN 1C DEB","line1":"1 30539U 99025AKD 26181.48726431  .00002334  00000+0  49221-3 0  9990","line2":"2 30539  98.8919 179.9153 0115563  29.1960 331.5631 14.56406234 22505"},{"name":"FENGYUN 1C DEB","line1":"1 30540U 99025AKE 26182.01460855  .00006215  00000+0  21903-2 0  9995","line2":"2 30540  98.8858 300.4959 0053190 191.4605 222.8862 14.34354453  1551"},{"name":"FENGYUN 1C DEB","line1":"1 30541U 99025AKF 26181.56060044  .00001906  00000+0  84910-3 0  9991","line2":"2 30541  98.6763 230.5240 0016127 217.9763 142.0280 14.23926145  1647"},{"name":"FENGYUN 1C DEB","line1":"1 30542U 99025AKG 26182.01397917  .00000395  00000+0  26064-3 0  9992","line2":"2 30542  98.7648 209.8955 0028988 127.4838 262.4984 14.07073082997354"},{"name":"FENGYUN 1C DEB","line1":"1 30543U 99025AKH 26181.26407337  .00000598  00000+0  39726-3 0  9991","line2":"2 30543  98.8278 190.1923 0071681 194.3637 295.3230 14.03885393993043"},{"name":"FENGYUN 1C DEB","line1":"1 30545U 99025AKK 26181.94525970  .00000227  00000+0  36383-3 0  9997","line2":"2 30545  98.9883  11.5694 0470838 245.6874 109.4400 13.20912660935731"},{"name":"FENGYUN 1C DEB","line1":"1 30546U 99025AKL 26181.66088255  .00004621  00000+0  45051-3 0  9991","line2":"2 30546  98.8864  67.2758 0085969 242.9920 142.9591 14.90325613 34320"},{"name":"FENGYUN 1C DEB","line1":"1 30547U 99025AKM 26181.85885317  .00000508  00000+0  17470-3 0  9991","line2":"2 30547  98.8857  36.8878 0095360 348.0356 133.7473 14.38036062 15960"},{"name":"FENGYUN 1C DEB","line1":"1 30548U 99025AKN 26178.53595682  .00003212  00000+0  12717-2 0  9999","line2":"2 30548  99.6782 102.0870 0065886 135.9220  40.4036 14.28527089169038"},{"name":"FENGYUN 1C DEB","line1":"1 30549U 99025AKP 26182.08675809  .00002360  00000+0  11415-2 0  9992","line2":"2 30549  98.4879 293.1939 0286468  55.2437 307.5344 14.00070426980966"},{"name":"FENGYUN 1C DEB","line1":"1 30550U 99025AKQ 26181.96179637  .00003132  00000+0  18694-2 0  9992","line2":"2 30550  99.0498  81.2623 0130381  99.3339 278.2843 14.03782445982032"},{"name":"FENGYUN 1C DEB","line1":"1 30552U 99025AKS 26181.89034087  .00012579  00000+0  26162-2 0  9999","line2":"2 30552  98.8414 330.8832 0011470  12.0359 348.1111 14.60164094  5673"},{"name":"FENGYUN 1C DEB","line1":"1 30553U 99025AKT 26181.77514913  .00020031  00000+0  25834-2 0  9995","line2":"2 30553  99.1307 307.6785 0017707 233.0787 126.8800 14.80949160 14131"},{"name":"FENGYUN 1C DEB","line1":"1 30555U 99025AKV 26182.11218992  .00002495  00000+0  11410-2 0  9993","line2":"2 30555  98.7395 238.7874 0043346  57.7853   4.5793 14.21851457997826"},{"name":"FENGYUN 1C DEB","line1":"1 30556U 99025AKW 26181.91986434  .00000621  00000+0  42897-3 0  9997","line2":"2 30556  98.7907 172.8418 0068735  43.0531 347.0617 14.01588062990615"}]}